STARLINK-2504
1 18328C 21036BE  21326.17083307  .00000859  00000-0  57583-4 0  3268
2 18328  53.0545 302.9631 0001648  65.9710 235.8309 15.06387748    10
